O3B FM5                 
1 39188U 13031A   24358.77378256 -.00000016  00000+0  00000+0 0  9990
2 39188   0.0619 348.3615 0002668 288.0298  83.5791  5.00115236210005
O3B FM4                 
1 39189U 13031B   24360.42841563 -.00000014  00000+0  00000+0 0  9990
2 39189   0.0380   5.1802 0002640 272.2977  82.4935  5.00115161210102
O3B FM2                 
1 39190U 13031C   24360.32027861 -.00000014  00000+0  00000+0 0  9998
2 39190   0.0336   9.2801 0002651 267.3460  83.3450  5.00115708210146
O3B PFM                 
1 39191U 13031D   24360.34566717 -.00000014  00000+0  00000+0 0  9999
2 39191   0.0545 353.3125 0002721 282.0315  84.6263  5.00115115209700
O3B FM3                 
1 40079U 14038A   24359.00131697 -.00000016  00000+0  00000+0 0  9992
2 40079   0.0439 358.0759 0005147 271.6541  90.2117  5.00114820186026
O3B FM7                 
1 40080U 14038B   24358.94753522 -.00000016  00000+0  00000+0 0  9993
2 40080   0.0395 356.2578 0001175 314.6168  49.1161  5.00115296190854
O3B FM6                 
1 40081U 14038C   24358.77477734 -.00000016  00000+0  00000+0 0  9993
2 40081   0.0436 359.4455 0002786 276.0113  84.5121  5.00115525190797
O3B FM8                 
1 40082U 14038D   24359.02814037 -.00000016  00000+0  00000+0 0  9994
2 40082   0.0427 358.8374 0002762 272.9998  88.1319  5.00115633190925
O3B FM10                
1 40348U 14083A   24359.05454022 -.00000016  00000+0  00000+0 0  9996
2 40348   0.0527 358.6004 0002711 276.8415  84.5280  5.00115731182860
O3B FM11                
1 40349U 14083B   24359.06777383 -.00000016  00000+0  00000+0 0  9996
2 40349   0.0513 353.5723 0002346 294.3403  72.0627  5.00115667182881
O3B FM12                
1 40350U 14083C   24358.89515759 -.00000016  00000+0  00000+0 0  9995
2 40350   0.0508 354.5101 0002811 284.3707  81.0881  5.00115725182899
O3B FM9                 
1 40351U 14083D   24358.52205604 -.00000017  00000+0  00000+0 0  9992
2 40351   0.0514 352.3184 0002666 281.4146  86.2371  5.00115395183016
LEO 1 (LEO VANTAGE 1)   
1 43113U 18004C   24360.50280580  .00007877  00000+0  57413-3 0  9999
2 43113  99.2943 197.8586 0366416 286.7134  69.4157 14.63132821358572
O3B FM15                
1 43231U 18024A   24358.78849163 -.00000016  00000+0  00000+0 0  9992
2 43231   0.0543   1.9455 0002979 274.7323  83.2890  5.00115171123980
O3B FM16                
1 43232U 18024B   24359.84055610 -.00000015  00000+0  00000+0 0  9996
2 43232   0.0572   4.7797 0002963 273.3027  81.8851  5.00115521123960
O3B FM14                
1 43233U 18024C   24358.88157699 -.00000016  00000+0  00000+0 0  9991
2 43233   0.0568   6.4545 0002841 267.2226  86.2911  5.00115118123928
O3B FM13                
1 43234U 18024D   24358.93488902 -.00000016  00000+0  00000+0 0  9992
2 43234   0.0593 332.7271 0003385 310.7222  76.5137  5.00115287124045
O3B FM20                
1 44112U 19020A   24359.50725682 -.00000015  00000+0  00000+0 0  9997
2 44112   0.0520 359.0076 0003027 285.5678  75.3921  5.00115196104576
O3B FM19                
1 44113U 19020B   24359.53457211 -.00000015  00000+0  00000+0 0  9991
2 44113   0.0483 343.5148 0001357 299.5051  76.9660  5.00115218104434
O3B FM17                
1 44114U 19020C   24360.41390017 -.00000014  00000+0  00000+0 0  9990
2 44114   0.0485  21.0121 0003067 258.6527  80.3018  5.00115059104574
O3B FM18                
1 44115U 19020D   24359.96031134 -.00000014  00000+0  00000+0 0  9991
2 44115   0.0523 358.6050 0002962 276.9545  84.4079  5.00114988104677
SALSAT                  
1 46495U 20068K   24360.47903977  .00015048  00000+0  73140-3 0  9990
2 46495  97.8410 325.5619 0013663  25.0851 335.1043 15.18454886233287
O3B MPOWER F1           
1 54755U 22174A   24360.50064529 -.00000013  00000+0  00000+0 0  9991
2 54755   0.0396 348.6331 0006022 272.8013 212.1866  5.00116624 38414
O3B MPOWER F2           
1 54756U 22174B   24360.17096263 -.00000014  00000+0  00000+0 0  9996
2 54756   0.0365 352.1429 0005976 283.4671  84.3230  5.00113610 38476
O3B MPOWER F4           
1 56367U 23059A   24360.27084053 -.00000014  00000+0  00000+0 0  9994
2 56367   0.0566 347.3801 0005449 271.3154 101.2445  5.00117239 31646
O3B MPOWER F3           
1 56368U 23059B   24360.13771350 -.00000014  00000+0  00000+0 0  9993
2 56368   0.0582 347.5742 0006419 289.1626  83.1914  5.00116739 27750
